{
  "type": "FeatureCollection",
  "features": [
    {
      "type": "Feature",
      "properties": {
        "norad_id": 36695,
        "name": "FENGYUN 1C DEB",
        "group": "fengyun-1c-debris",
        "lat": 24.965958848234692,
        "lon": 141.979938115148,
        "alt_km": 564.0390339824362,
        "timestamp": "2025-12-02T10:50:47.562944+00:00",
        "meta_object_name": "FENGYUN 1C DEB",
        "meta_object_id": "1999-025DZR",
        "meta_epoch": "2025-11-28T16:18:42.319872",
        "meta_mean_motion": 14.43712287,
        "meta_eccentricity": 0.02564002,
        "meta_inclination": 98.2165,
        "meta_ra_of_asc_node": 314.4766,
        "meta_arg_of_pericenter": 172.9711,
        "meta_mean_anomaly": 187.5189,
        "meta_ephemeris_type": 0,
        "meta_classification_type": "U",
        "meta_norad_cat_id": 36695,
        "meta_element_set_no": 999,
        "meta_rev_at_epoch": 89365,
        "meta_bstar": 0.0001779375,
        "meta_mean_motion_dot": 8.49e-06,
        "meta_mean_motion_ddot": 0,
        "tle_line1": "1 36695U 99025DZR 25332.67965648  .00000849  00000+0  17794-3 0  9991",
        "tle_line2": "2 36695  98.2165 314.4766 0256400 172.9711 187.5189 14.43712287893657"
      },
      "geometry": {
        "type": "Point",
        "coordinates": [
          141.979938115148,
          24.965958848234692
        ]
      }
    },
    {
      "type": "Feature",
      "properties": {
        "norad_id": 36696,
        "name": "FENGYUN 1C DEB",
        "group": "fengyun-1c-debris",
        "lat": -33.45722871742087,
        "lon": 158.9438664562646,
        "alt_km": 782.0004550904105,
        "timestamp": "2025-12-02T10:50:47.562954+00:00",
        "meta_object_name": "FENGYUN 1C DEB",
        "meta_object_id": "1999-025DZS",
        "meta_epoch": "2025-11-24T18:16:57.315936",
        "meta_mean_motion": 14.38880004,
        "meta_eccentricity": 0.0023648,
        "meta_inclination": 98.9926,
        "meta_ra_of_asc_node": 336.8941,
        "meta_arg_of_pericenter": 22.9721,
        "meta_mean_anomaly": 337.2518,
        "meta_ephemeris_type": 0,
        "meta_classification_type": "U",
        "meta_norad_cat_id": 36696,
        "meta_element_set_no": 999,
        "meta_rev_at_epoch": 64137,
        "meta_bstar": 0.0024257,
        "meta_mean_motion_dot": 7.452e-05,
        "meta_mean_motion_ddot": 0,
        "tle_line1": "1 36696U 99025DZS 25328.76177449  .00007452  00000+0  24257-2 0  9999",
        "tle_line2": "2 36696  98.9926 336.8941 0023648  22.9721 337.2518 14.38880004641371"
      },
      "geometry": {
        "type": "Point",
        "coordinates": [
          158.9438664562646,
          -33.45722871742087
        ]
      }
    },
    {
      "type": "Feature",
      "properties": {
        "norad_id": 36699,
        "name": "FENGYUN 1C DEB",
        "group": "fengyun-1c-debris",
        "lat": 73.73079000735378,
        "lon": -59.845189599968464,
        "alt_km": 795.9157833328054,
        "timestamp": "2025-12-02T10:50:47.562964+00:00",
        "meta_object_name": "FENGYUN 1C DEB",
        "meta_object_id": "1999-025DZV",
        "meta_epoch": "2025-12-01T05:49:28.079040",
        "meta_mean_motion": 14.24272821,
        "meta_eccentricity": 0.0094114,
        "meta_inclination": 98.5587,
        "meta_ra_of_asc_node": 330.0428,
        "meta_arg_of_pericenter": 163.4578,
        "meta_mean_anomaly": 196.9708,
        "meta_ephemeris_type": 0,
        "meta_classification_type": "U",
        "meta_norad_cat_id": 36699,
        "meta_element_set_no": 999,
        "meta_rev_at_epoch": 73163,
        "meta_bstar": 0.00026728,
        "meta_mean_motion_dot": 6.04e-06,
        "meta_mean_motion_ddot": 0,
        "tle_line1": "1 36699U 99025DZV 25335.24268610  .00000604  00000+0  26728-3 0  9992",
        "tle_line2": "2 36699  98.5587 330.0428 0094114 163.4578 196.9708 14.24272821731633"
      },
      "geometry": {
        "type": "Point",
        "coordinates": [
          -59.845189599968464,
          73.73079000735378
        ]
      }
    },
    {
      "type": "Feature",
      "properties": {
        "norad_id": 36701,
        "name": "FENGYUN 1C DEB",
        "group": "fengyun-1c-debris",
        "lat": -6.397792242652885,
        "lon": 106.00168717532975,
        "alt_km": 995.040628103402,
        "timestamp": "2025-12-02T10:50:47.562974+00:00",
        "meta_object_name": "FENGYUN 1C DEB",
        "meta_object_id": "1999-025DZX",
        "meta_epoch": "2025-11-30T15:53:09.500928",
        "meta_mean_motion": 13.71224206,
        "meta_eccentricity": 0.02612081,
        "meta_inclination": 102.7441,
        "meta_ra_of_asc_node": 285.087,
        "meta_arg_of_pericenter": 280.9421,
        "meta_mean_anomaly": 76.243,
        "meta_ephemeris_type": 0,
        "meta_classification_type": "U",
        "meta_norad_cat_id": 36701,
        "meta_element_set_no": 999,
        "meta_rev_at_epoch": 60973,
        "meta_bstar": 0.0027853288,
        "meta_mean_motion_dot": 3.111e-05,
        "meta_mean_motion_ddot": 0,
        "tle_line1": "1 36701U 99025DZX 25334.66191552  .00003111  00000+0  27853-2 0  9996",
        "tle_line2": "2 36701 102.7441 285.0870 0261208 280.9421  76.2430 13.71224206609738"
      },
      "geometry": {
        "type": "Point",
        "coordinates": [
          106.00168717532975,
          -6.397792242652885
        ]
      }
    },
    {
      "type": "Feature",
      "properties": {
        "norad_id": 36707,
        "name": "FENGYUN 1C DEB",
        "group": "fengyun-1c-debris",
        "lat": -42.89261181597228,
        "lon": -165.50716160504703,
        "alt_km": 830.5259794008753,
        "timestamp": "2025-12-02T10:50:47.562984+00:00",
        "meta_object_name": "FENGYUN 1C DEB",
        "meta_object_id": "1999-025EAD",
        "meta_epoch": "2025-11-29T08:56:27.364416",
        "meta_mean_motion": 14.17242716,
        "meta_eccentricity": 0.00499722,
        "meta_inclination": 98.7542,
        "meta_ra_of_asc_node": 19.691,
        "meta_arg_of_pericenter": 159.2794,
        "meta_mean_anomaly": 201.0422,
        "meta_ephemeris_type": 0,
        "meta_classification_type": "U",
        "meta_norad_cat_id": 36707,
        "meta_element_set_no": 999,
        "meta_rev_at_epoch": 63890,
        "meta_bstar": 0.0007860803,
        "meta_mean_motion_dot": 1.563e-05,
        "meta_mean_motion_ddot": 0,
        "tle_line1": "1 36707U 99025EAD 25333.37253894  .00001563  00000+0  78608-3 0  9991",
        "tle_line2": "2 36707  98.7542  19.6910 0049972 159.2794 201.0422 14.17242716638906"
      },
      "geometry": {
        "type": "Point",
        "coordinates": [
          -165.50716160504703,
          -42.89261181597228
        ]
      }
    },
    {
      "type": "Feature",
      "properties": {
        "norad_id": 36710,
        "name": "FENGYUN 1C DEB",
        "group": "fengyun-1c-debris",
        "lat": 11.021960355325549,
        "lon": 31.988452369143662,
        "alt_km": 772.9468911383738,
        "timestamp": "2025-12-02T10:50:47.562994+00:00",
        "meta_object_name": "FENGYUN 1C DEB",
        "meta_object_id": "1999-025EAG",
        "meta_epoch": "2025-12-01T21:32:31.904736",
        "meta_mean_motion": 14.49639055,
        "meta_eccentricity": 0.0067671,
        "meta_inclination": 98.3816,
        "meta_ra_of_asc_node": 33.083,
        "meta_arg_of_pericenter": 214.3646,
        "meta_mean_anomaly": 145.3162,
        "meta_ephemeris_type": 0,
        "meta_classification_type": "U",
        "meta_norad_cat_id": 36710,
        "meta_element_set_no": 999,
        "meta_rev_at_epoch": 64796,
        "meta_bstar": 0.0017483,
        "meta_mean_motion_dot": 6.877e-05,
        "meta_mean_motion_ddot": 0,
        "tle_line1": "1 36710U 99025EAG 25335.89759149  .00006877  00000+0  17483-2 0  9994",
        "tle_line2": "2 36710  98.3816  33.0830 0067671 214.3646 145.3162 14.49639055647964"
      },
      "geometry": {
        "type": "Point",
        "coordinates": [
          31.988452369143662,
          11.021960355325549
        ]
      }
    },
    {
      "type": "Feature",
      "properties": {
        "norad_id": 36711,
        "name": "FENGYUN 1C DEB",
        "group": "fengyun-1c-debris",
        "lat": 20.260425889129603,
        "lon": 177.07119846714153,
        "alt_km": 735.2649689619466,
        "timestamp": "2025-12-02T10:50:47.563004+00:00",
        "meta_object_name": "FENGYUN 1C DEB",
        "meta_object_id": "1999-025EAH",
        "meta_epoch": "2025-11-29T18:49:32.545344",
        "meta_mean_motion": 14.42080972,
        "meta_eccentricity": 0.01000486,
        "meta_inclination": 100.8061,
        "meta_ra_of_asc_node": 349.6584,
        "meta_arg_of_pericenter": 244.1532,
        "meta_mean_anomaly": 114.9305,
        "meta_ephemeris_type": 0,
        "meta_classification_type": "U",
        "meta_norad_cat_id": 36711,
        "meta_element_set_no": 999,
        "meta_rev_at_epoch": 64124,
        "meta_bstar": 0.0024295961,
        "meta_mean_motion_dot": 8.419e-05,
        "meta_mean_motion_ddot": 0,
        "tle_line1": "1 36711U 99025EAH 25333.78440446  .00008419  00000+0  24296-2 0  9992",
        "tle_line2": "2 36711 100.8061 349.6584 0100048 244.1532 114.9305 14.42080972641246"
      },
      "geometry": {
        "type": "Point",
        "coordinates": [
          177.07119846714153,
          20.260425889129603
        ]
      }
    }
  ]
}